CCSDS_OMM_VERS = 2.0
CREATION_DATE  = 
ORIGINATOR     = 

OBJECT_NAME    = ATLAS CENTAUR 2
OBJECT_ID      = 1963-047A
CENTER_NAME    = EARTH
REF_FRAME      = TEME
TIME_SYSTEM    = UTC
MEAN_ELEMENT_THEORY = SGP/SGP4

EPOCH          = 2026-02-24T06:06:35.150400
MEAN_MOTION    = 14.12024494
ECCENTRICITY   = .0548052
INCLINATION    = 30.3554
RA_OF_ASC_NODE = 270.7268
ARG_OF_PERICENTER = 321.8836
MEAN_ANOMALY   = 34.4181

EPHEMERIS_TYPE = 0
CLASSIFICATION_TYPE = U
NORAD_CAT_ID   = 694
ELEMENT_SET_NO = 999
REV_AT_EPOCH   = 12972
BSTAR          = .14571E-3
MEAN_MOTION_DOT = .1299E-4
MEAN_MOTION_DDOT = 0

CCSDS_OMM_VERS = 2.0
CREATION_DATE  = 
ORIGINATOR     = 

OBJECT_NAME    = THOR AGENA D R/B
OBJECT_ID      = 1964-002A
CENTER_NAME    = EARTH
REF_FRAME      = TEME
TIME_SYSTEM    = UTC
MEAN_ELEMENT_THEORY = SGP/SGP4

EPOCH          = 2026-02-24T11:23:17.337408
MEAN_MOTION    = 14.34011273
ECCENTRICITY   = .0032002
INCLINATION    = 99.1230
RA_OF_ASC_NODE = 68.0919
ARG_OF_PERICENTER = 297.8083
MEAN_ANOMALY   = 61.9857

EPHEMERIS_TYPE = 0
CLASSIFICATION_TYPE = U
NORAD_CAT_ID   = 733
ELEMENT_SET_NO = 999
REV_AT_EPOCH   = 23640
BSTAR          = .98638E-4
MEAN_MOTION_DOT = .228E-5
MEAN_MOTION_DDOT = 0

CCSDS_OMM_VERS = 2.0
CREATION_DATE  = 
ORIGINATOR     = 

OBJECT_NAME    = SL-3 R/B
OBJECT_ID      = 1964-053B
CENTER_NAME    = EARTH
REF_FRAME      = TEME
TIME_SYSTEM    = UTC
MEAN_ELEMENT_THEORY = SGP/SGP4

EPOCH          = 2026-02-24T06:41:23.613792
MEAN_MOTION    = 14.61353056
ECCENTRICITY   = .0079165
INCLINATION    = 65.0783
RA_OF_ASC_NODE = 10.5526
ARG_OF_PERICENTER = 296.4784
MEAN_ANOMALY   = 62.8211

EPHEMERIS_TYPE = 0
CLASSIFICATION_TYPE = U
NORAD_CAT_ID   = 877
ELEMENT_SET_NO = 999
REV_AT_EPOCH   = 26483
BSTAR          = .96131E-4
MEAN_MOTION_DOT = .372E-5
MEAN_MOTION_DDOT = 0

CCSDS_OMM_VERS = 2.0
CREATION_DATE  = 
ORIGINATOR     = 

OBJECT_NAME    = SL-8 R/B
OBJECT_ID      = 1967-045B
CENTER_NAME    = EARTH
REF_FRAME      = TEME
TIME_SYSTEM    = UTC
MEAN_ELEMENT_THEORY = SGP/SGP4

EPOCH          = 2026-02-24T08:34:36.812064
MEAN_MOTION    = 14.45607361
ECCENTRICITY   = .0063648
INCLINATION    = 74.0126
RA_OF_ASC_NODE = 12.9851
ARG_OF_PERICENTER = 22.4698
MEAN_ANOMALY   = 337.9224

EPHEMERIS_TYPE = 0
CLASSIFICATION_TYPE = U
NORAD_CAT_ID   = 2802
ELEMENT_SET_NO = 999
REV_AT_EPOCH   = 8709
BSTAR          = .14074E-3
MEAN_MOTION_DOT = .482E-5
MEAN_MOTION_DDOT = 0

CCSDS_OMM_VERS = 2.0
CREATION_DATE  = 
ORIGINATOR     = 

OBJECT_NAME    = SL-8 R/B
OBJECT_ID      = 1968-040B
CENTER_NAME    = EARTH
REF_FRAME      = TEME
TIME_SYSTEM    = UTC
MEAN_ELEMENT_THEORY = SGP/SGP4

EPOCH          = 2026-02-24T04:47:07.105920
MEAN_MOTION    = 15.03149778
ECCENTRICITY   = .0024538
INCLINATION    = 74.0333
RA_OF_ASC_NODE = 341.2550
ARG_OF_PERICENTER = 169.4833
MEAN_ANOMALY   = 190.6874

EPHEMERIS_TYPE = 0
CLASSIFICATION_TYPE = U
NORAD_CAT_ID   = 3230
ELEMENT_SET_NO = 999
REV_AT_EPOCH   = 8798
BSTAR          = .30701E-3
MEAN_MOTION_DOT = .4134E-4
MEAN_MOTION_DDOT = 0

CCSDS_OMM_VERS = 2.0
CREATION_DATE  = 
ORIGINATOR     = 

OBJECT_NAME    = OAO 2
OBJECT_ID      = 1968-110A
CENTER_NAME    = EARTH
REF_FRAME      = TEME
TIME_SYSTEM    = UTC
MEAN_ELEMENT_THEORY = SGP/SGP4

EPOCH          = 2026-02-24T01:18:30.566880
MEAN_MOTION    = 14.47298265
ECCENTRICITY   = .00048521
INCLINATION    = 34.9947
RA_OF_ASC_NODE = 341.3513
ARG_OF_PERICENTER = 89.3891
MEAN_ANOMALY   = 270.7356

EPHEMERIS_TYPE = 0
CLASSIFICATION_TYPE = U
NORAD_CAT_ID   = 3597
ELEMENT_SET_NO = 999
REV_AT_EPOCH   = 1712
BSTAR          = .68132665E-4
MEAN_MOTION_DOT = .234E-5
MEAN_MOTION_DDOT = 0

CCSDS_OMM_VERS = 2.0
CREATION_DATE  = 
ORIGINATOR     = 

OBJECT_NAME    = ISIS 1
OBJECT_ID      = 1969-009A
CENTER_NAME    = EARTH
REF_FRAME      = TEME
TIME_SYSTEM    = UTC
MEAN_ELEMENT_THEORY = SGP/SGP4

EPOCH          = 2026-02-24T08:31:20.074944
MEAN_MOTION    = 11.30409259
ECCENTRICITY   = .1707814
INCLINATION    = 88.4555
RA_OF_ASC_NODE = 156.7617
ARG_OF_PERICENTER = 116.0647
MEAN_ANOMALY   = 262.5979

EPHEMERIS_TYPE = 0
CLASSIFICATION_TYPE = U
NORAD_CAT_ID   = 3669
ELEMENT_SET_NO = 999
REV_AT_EPOCH   = 34702
BSTAR          = .10825E-3
MEAN_MOTION_DOT = .175E-5
MEAN_MOTION_DDOT = 0

CCSDS_OMM_VERS = 2.0
CREATION_DATE  = 
ORIGINATOR     = 

OBJECT_NAME    = SERT 2
OBJECT_ID      = 1970-009A
CENTER_NAME    = EARTH
REF_FRAME      = TEME
TIME_SYSTEM    = UTC
MEAN_ELEMENT_THEORY = SGP/SGP4

EPOCH          = 2026-02-24T09:10:53.343840
MEAN_MOTION    = 13.58728638
ECCENTRICITY   = .000452
INCLINATION    = 99.2741
RA_OF_ASC_NODE = 359.2056
ARG_OF_PERICENTER = 189.6223
MEAN_ANOMALY   = 291.5410

EPHEMERIS_TYPE = 0
CLASSIFICATION_TYPE = U
NORAD_CAT_ID   = 4327
ELEMENT_SET_NO = 999
REV_AT_EPOCH   = 77808
BSTAR          = .10919E-3
MEAN_MOTION_DOT = .39E-6
MEAN_MOTION_DDOT = 0

CCSDS_OMM_VERS = 2.0
CREATION_DATE  = 
ORIGINATOR     = 

OBJECT_NAME    = SL-3 R/B
OBJECT_ID      = 1971-028B
CENTER_NAME    = EARTH
REF_FRAME      = TEME
TIME_SYSTEM    = UTC
MEAN_ELEMENT_THEORY = SGP/SGP4

EPOCH          = 2026-02-24T12:15:55.731744
MEAN_MOTION    = 15.59926218
ECCENTRICITY   = .0015351
INCLINATION    = 81.2336
RA_OF_ASC_NODE = 68.2941
ARG_OF_PERICENTER = 339.9483
MEAN_ANOMALY   = 20.1164

EPHEMERIS_TYPE = 0
CLASSIFICATION_TYPE = U
NORAD_CAT_ID   = 5118
ELEMENT_SET_NO = 999
REV_AT_EPOCH   = 98661
BSTAR          = .44456E-3
MEAN_MOTION_DOT = .36132E-3
MEAN_MOTION_DDOT = 0

CCSDS_OMM_VERS = 2.0
CREATION_DATE  = 
ORIGINATOR     = 

OBJECT_NAME    = ASTEX 1
OBJECT_ID      = 1971-089A
CENTER_NAME    = EARTH
REF_FRAME      = TEME
TIME_SYSTEM    = UTC
MEAN_ELEMENT_THEORY = SGP/SGP4

EPOCH          = 2026-02-24T12:14:50.947296
MEAN_MOTION    = 14.50753135
ECCENTRICITY   = .0017505
INCLINATION    = 92.7139
RA_OF_ASC_NODE = 147.4969
ARG_OF_PERICENTER = 124.8722
MEAN_ANOMALY   = 235.4132

EPHEMERIS_TYPE = 0
CLASSIFICATION_TYPE = U
NORAD_CAT_ID   = 5560
ELEMENT_SET_NO = 999
REV_AT_EPOCH   = 86039
BSTAR          = .14167E-3
MEAN_MOTION_DOT = .557E-5
MEAN_MOTION_DDOT = 0

CCSDS_OMM_VERS = 2.0
CREATION_DATE  = 
ORIGINATOR     = 

OBJECT_NAME    = SL-8 R/B
OBJECT_ID      = 1971-119B
CENTER_NAME    = EARTH
REF_FRAME      = TEME
TIME_SYSTEM    = UTC
MEAN_ELEMENT_THEORY = SGP/SGP4

EPOCH          = 2026-02-24T12:07:23.246688
MEAN_MOTION    = 14.37422198
ECCENTRICITY   = .0551347
INCLINATION    = 73.8863
RA_OF_ASC_NODE = 200.3540
ARG_OF_PERICENTER = 169.7221
MEAN_ANOMALY   = 191.5787

EPHEMERIS_TYPE = 0
CLASSIFICATION_TYPE = U
NORAD_CAT_ID   = 5730
ELEMENT_SET_NO = 999
REV_AT_EPOCH   = 65359
BSTAR          = .79227E-3
MEAN_MOTION_DOT = .15273E-3
MEAN_MOTION_DDOT = 0

CCSDS_OMM_VERS = 2.0
CREATION_DATE  = 
ORIGINATOR     = 

OBJECT_NAME    = OAO 3 (COPERNICUS)
OBJECT_ID      = 1972-065A
CENTER_NAME    = EARTH
REF_FRAME      = TEME
TIME_SYSTEM    = UTC
MEAN_ELEMENT_THEORY = SGP/SGP4

EPOCH          = 2026-02-24T04:59:11.367744
MEAN_MOTION    = 14.59984921
ECCENTRICITY   = .00060653
INCLINATION    = 35.0068
RA_OF_ASC_NODE = 14.1250
ARG_OF_PERICENTER = 46.9645
MEAN_ANOMALY   = 79.2160

EPHEMERIS_TYPE = 0
CLASSIFICATION_TYPE = U
NORAD_CAT_ID   = 6153
ELEMENT_SET_NO = 999
REV_AT_EPOCH   = 84422
BSTAR          = .80991601E-4
MEAN_MOTION_DOT = .373E-5
MEAN_MOTION_DDOT = 0

