ATLAS CENTAUR 2         
1 00694U 63047A   26055.25457350  .00001299  00000+0  14571-3 0  9999
2 00694  30.3554 270.7268 0548052 321.8836  34.4181 14.12024494129721
THOR AGENA D R/B        
1 00733U 64002A   26055.47450622  .00000228  00000+0  98638-4 0  9992
2 00733  99.1230  68.0919 0032002 297.8083  61.9857 14.34011273236403
SL-3 R/B                
1 00877U 64053B   26055.27874553  .00000372  00000+0  96131-4 0  9994
2 00877  65.0783  10.5526 0079165 296.4784  62.8211 14.61353056264837
SL-8 R/B                
1 02802U 67045B   26055.35737051  .00000482  00000+0  14074-3 0  9995
2 02802  74.0126  12.9851 0063648  22.4698 337.9224 14.45607361 87099
SL-8 R/B                
1 03230U 68040B   26055.19938780  .00004134  00000+0  30701-3 0  9994
2 03230  74.0333 341.2550 0024538 169.4833 190.6874 15.03149778 87988
OAO 2                   
1 03597U 68110A   26055.05452045  .00000234  00000+0  68133-4 0  9996
2 03597  34.9947 341.3513 0004852  89.3891 270.7356 14.47298265 17128
ISIS 1                  
1 03669U 69009A   26055.35509346  .00000175  00000+0  10825-3 0  9992
2 03669  88.4555 156.7617 1707814 116.0647 262.5979 11.30409259347027
SERT 2                  
1 04327U 70009A   26055.38256185  .00000039  00000+0  10919-3 0  9992
2 04327  99.2741 359.2056 0004520 189.6223 291.5410 13.58728638778085
SL-3 R/B                
1 05118U 71028B   26055.51106171  .00036132  00000+0  44456-3 0  9993
2 05118  81.2336  68.2941 0015351 339.9483  20.1164 15.59926218986616
ASTEX 1                 
1 05560U 71089A   26055.51031189  .00000557  00000+0  14167-3 0  9995
2 05560  92.7139 147.4969 0017505 124.8722 235.4132 14.50753135860393
SL-8 R/B                
1 05730U 71119B   26055.50513017  .00015273  00000+0  79227-3 0  9991
2 05730  73.8863 200.3540 0551347 169.7221 191.5787 14.37422198653596
OAO 3 (COPERNICUS)      
1 06153U 72065A   26055.20777046  .00000373  00000+0  80992-4 0  9990
2 06153  35.0068  14.1250 0006065  46.9645  79.2160 14.59984921844220
